[{"OBJECT_NAME":"MERIDIAN-M 21L","OBJECT_ID":"2026-071A","EPOCH":"2026-04-14T09:33:05.456448","MEAN_MOTION":1.98596107,"ECCENTRICITY":0.72346467,"INCLINATION":62.779,"RA_OF_ASC_NODE":237.3403,"ARG_OF_PERICENTER":284.9939,"MEAN_ANOMALY":10.816,"EPHEMERIS_TYPE":0,"CLASSIFICATION_TYPE":"U","NORAD_CAT_ID":68571,"ELEMENT_SET_NO":999,"REV_AT_EPOCH":23,"BSTAR":0.0080351969,"MEAN_MOTION_DOT":4.89e-6,"MEAN_MOTION_DDOT":0},{"OBJECT_NAME":"KUIPER-00131","OBJECT_ID":"2026-072A","EPOCH":"2026-04-20T13:28:52.930272","MEAN_MOTION":15.32635889,"ECCENTRICITY":0.00065814,"INCLINATION":51.8713,"RA_OF_ASC_NODE":95.692,"ARG_OF_PERICENTER":165.5165,"MEAN_ANOMALY":194.6009,"EPHEMERIS_TYPE":0,"CLASSIFICATION_TYPE":"U","NORAD_CAT_ID":68573,"ELEMENT_SET_NO":999,"REV_AT_EPOCH":251,"BSTAR":-0.020933875,"MEAN_MOTION_DOT":-0.00625437,"MEAN_MOTION_DDOT":0},{"OBJECT_NAME":"KUIPER-00189","OBJECT_ID":"2026-072B","EPOCH":"2026-04-20T22:00:01.999584","MEAN_MOTION":15.19203518,"ECCENTRICITY":0.00012546,"INCLINATION":51.8831,"RA_OF_ASC_NODE":94.4252,"ARG_OF_PERICENTER":87.2935,"MEAN_ANOMALY":193.4102,"EPHEMERIS_TYPE":0,"CLASSIFICATION_TYPE":"U","NORAD_CAT_ID":68574,"ELEMENT_SET_NO":999,"REV_AT_EPOCH":306,"BSTAR":-0.05767827,"MEAN_MOTION_DOT":-0.01135235,"MEAN_MOTION_DDOT":0},{"OBJECT_NAME":"KUIPER-00192","OBJECT_ID":"2026-072C","EPOCH":"2026-04-20T13:14:33.019584","MEAN_MOTION":15.37724112,"ECCENTRICITY":0.00049572,"INCLINATION":51.8753,"RA_OF_ASC_NODE":95.6367,"ARG_OF_PERICENTER":148.7255,"MEAN_ANOMALY":211.4028,"EPHEMERIS_TYPE":0,"CLASSIFICATION_TYPE":"U","NORAD_CAT_ID":68575,"ELEMENT_SET_NO":999,"REV_AT_EPOCH":251,"BSTAR":0.00049507084,"MEAN_MOTION_DOT":0.00018287,"MEAN_MOTION_DDOT":0},{"OBJECT_NAME":"KUIPER-00193","OBJECT_ID":"2026-072D","EPOCH":"2026-04-20T13:12:29.601504","MEAN_MOTION":15.37767242,"ECCENTRICITY":0.00032697,"INCLINATION":51.8757,"RA_OF_ASC_NODE":95.6268,"ARG_OF_PERICENTER":134.7851,"MEAN_ANOMALY":225.3402,"EPHEMERIS_TYPE":0,"CLASSIFICATION_TYPE":"U","NORAD_CAT_ID":68576,"ELEMENT_SET_NO":999,"REV_AT_EPOCH":251,"BSTAR":0.00050649265,"MEAN_MOTION_DOT":0.00018743,"MEAN_MOTION_DDOT":0},{"OBJECT_NAME":"KUIPER-00194","OBJECT_ID":"2026-072E","EPOCH":"2026-04-18T14:19:53.467968","MEAN_MOTION":15.37972278,"ECCENTRICITY":0.00026971,"INCLINATION":51.8757,"RA_OF_ASC_NODE":105.0333,"ARG_OF_PERICENTER":123.5402,"MEAN_ANOMALY":236.5843,"EPHEMERIS_TYPE":0,"CLASSIFICATION_TYPE":"U","NORAD_CAT_ID":68577,"ELEMENT_SET_NO":999,"REV_AT_EPOCH":221,"BSTAR":-0.00058769333,"MEAN_MOTION_DOT":-0.00022625,"MEAN_MOTION_DDOT":0},{"OBJECT_NAME":"KUIPER-00229","OBJECT_ID":"2026-072F","EPOCH":"2026-04-19T07:45:57.113280","MEAN_MOTION":15.36585864,"ECCENTRICITY":0.00051863,"INCLINATION":51.8701,"RA_OF_ASC_NODE":101.654,"ARG_OF_PERICENTER":157.6014,"MEAN_ANOMALY":202.5199,"EPHEMERIS_TYPE":0,"CLASSIFICATION_TYPE":"U","NORAD_CAT_ID":68578,"ELEMENT_SET_NO":999,"REV_AT_EPOCH":232,"BSTAR":-0.0020775761,"MEAN_MOTION_DOT":-0.00075041,"MEAN_MOTION_DDOT":0},{"OBJECT_NAME":"KUIPER-00230","OBJECT_ID":"2026-072G","EPOCH":"2026-04-20T13:00:54.011520","MEAN_MOTION":15.38480228,"ECCENTRICITY":0.00015978,"INCLINATION":51.8768,"RA_OF_ASC_NODE":95.5695,"ARG_OF_PERICENTER":105.6608,"MEAN_ANOMALY":254.4556,"EPHEMERIS_TYPE":0,"CLASSIFICATION_TYPE":"U","NORAD_CAT_ID":68579,"ELEMENT_SET_NO":999,"REV_AT_EPOCH":251,"BSTAR":0.00038786703,"MEAN_MOTION_DOT":0.00014593,"MEAN_MOTION_DDOT":0},{"OBJECT_NAME":"KUIPER-00231","OBJECT_ID":"2026-072H","EPOCH":"2026-04-20T13:08:10.427424","MEAN_MOTION":15.38084819,"ECCENTRICITY":0.00026797,"INCLINATION":51.875,"RA_OF_ASC_NODE":95.6083,"ARG_OF_PERICENTER":133.1844,"MEAN_ANOMALY":226.9367,"EPHEMERIS_TYPE":0,"CLASSIFICATION_TYPE":"U","NORAD_CAT_ID":68580,"ELEMENT_SET_NO":999,"REV_AT_EPOCH":251,"BSTAR":0.00048135176,"MEAN_MOTION_DOT":0.00017978,"MEAN_MOTION_DDOT":0},{"OBJECT_NAME":"KUIPER-00234","OBJECT_ID":"2026-072J","EPOCH":"2026-04-20T13:02:36.826656","MEAN_MOTION":15.38516443,"ECCENTRICITY":0.00022797,"INCLINATION":51.876,"RA_OF_ASC_NODE":95.5825,"ARG_OF_PERICENTER":119.1648,"MEAN_ANOMALY":240.9568,"EPHEMERIS_TYPE":0,"CLASSIFICATION_TYPE":"U","NORAD_CAT_ID":68581,"ELEMENT_SET_NO":999,"REV_AT_EPOCH":251,"BSTAR":0.00052012135,"MEAN_MOTION_DOT":0.00019742,"MEAN_MOTION_DDOT":0},{"OBJECT_NAME":"KUIPER-00236","OBJECT_ID":"2026-072K","EPOCH":"2026-04-20T13:03:42.990048","MEAN_MOTION":15.3835763,"ECCENTRICITY":0.00025368,"INCLINATION":51.8764,"RA_OF_ASC_NODE":95.5859,"ARG_OF_PERICENTER":120.8679,"MEAN_ANOMALY":239.2558,"EPHEMERIS_TYPE":0,"CLASSIFICATION_TYPE":"U","NORAD_CAT_ID":68582,"ELEMENT_SET_NO":999,"REV_AT_EPOCH":251,"BSTAR":7.3385288e-5,"MEAN_MOTION_DOT":2.424e-5,"MEAN_MOTION_DDOT":0},{"OBJECT_NAME":"KUIPER-00244","OBJECT_ID":"2026-072L","EPOCH":"2026-04-20T11:36:16.652448","MEAN_MOTION":15.38024626,"ECCENTRICITY":0.00038709,"INCLINATION":51.8761,"RA_OF_ASC_NODE":95.9288,"ARG_OF_PERICENTER":146.5733,"MEAN_ANOMALY":213.5499,"EPHEMERIS_TYPE":0,"CLASSIFICATION_TYPE":"U","NORAD_CAT_ID":68583,"ELEMENT_SET_NO":999,"REV_AT_EPOCH":250,"BSTAR":0.00047421926,"MEAN_MOTION_DOT":0.00017671,"MEAN_MOTION_DDOT":0},{"OBJECT_NAME":"KUIPER-00253","OBJECT_ID":"2026-072M","EPOCH":"2026-04-18T12:54:56.270592","MEAN_MOTION":15.37485637,"ECCENTRICITY":0.0005376,"INCLINATION":51.8706,"RA_OF_ASC_NODE":105.3917,"ARG_OF_PERICENTER":149.1443,"MEAN_ANOMALY":210.986,"EPHEMERIS_TYPE":0,"CLASSIFICATION_TYPE":"U","NORAD_CAT_ID":68584,"ELEMENT_SET_NO":999,"REV_AT_EPOCH":220,"BSTAR":0.00059281046,"MEAN_MOTION_DOT":0.00021816,"MEAN_MOTION_DDOT":0},{"OBJECT_NAME":"KUIPER-00254","OBJECT_ID":"2026-072N","EPOCH":"2026-04-20T13:25:12.618912","MEAN_MOTION":15.36996721,"ECCENTRICITY":0.0007613,"INCLINATION":51.872,"RA_OF_ASC_NODE":95.685,"ARG_OF_PERICENTER":162.4331,"MEAN_ANOMALY":197.692,"EPHEMERIS_TYPE":0,"CLASSIFICATION_TYPE":"U","NORAD_CAT_ID":68585,"ELEMENT_SET_NO":999,"REV_AT_EPOCH":251,"BSTAR":0.0005106074,"MEAN_MOTION_DOT":0.00018437,"MEAN_MOTION_DDOT":0},{"OBJECT_NAME":"KUIPER-00263","OBJECT_ID":"2026-072P","EPOCH":"2026-04-20T13:00:45.780192","MEAN_MOTION":15.38589237,"ECCENTRICITY":0.00021075,"INCLINATION":51.8768,"RA_OF_ASC_NODE":95.571,"ARG_OF_PERICENTER":87.9693,"MEAN_ANOMALY":272.1536,"EPHEMERIS_TYPE":0,"CLASSIFICATION_TYPE":"U","NORAD_CAT_ID":68586,"ELEMENT_SET_NO":999,"REV_AT_EPOCH":251,"BSTAR":0.00060220508,"MEAN_MOTION_DOT":0.00022985,"MEAN_MOTION_DDOT":0}]
