MERIDIAN-M 21L          
1 68571U 26071A   26104.39797982  .00000489  00000+0  80352-2 0  9990
2 68571  62.7790 237.3403 7234646 284.9939  10.8160  1.98596107   235
KUIPER-00131            
1 68573U 26072A   26110.56172373 -.00625437  00000+0 -20934-1 0  9997
2 68573  51.8713  95.6920 0006581 165.5165 194.6009 15.32635889  2513
KUIPER-00189            
1 68574U 26072B   26110.91668981 -.01135235  00000+0 -57678-1 0  9990
2 68574  51.8831  94.4252 0001254  87.2935 193.4102 15.19203518  3064
KUIPER-00192            
1 68575U 26072C   26110.55177106  .00018287  00000+0  49507-3 0  9993
2 68575  51.8753  95.6367 0004957 148.7255 211.4028 15.37724112  2514
KUIPER-00193            
1 68576U 26072D   26110.55034261  .00018743  00000+0  50649-3 0  9994
2 68576  51.8757  95.6268 0003269 134.7851 225.3402 15.37767242  2512
KUIPER-00194            
1 68577U 26072E   26108.59714662 -.00022625  00000+0 -58769-3 0  9993
2 68577  51.8757 105.0333 0002697 123.5402 236.5843 15.37972278  2211
KUIPER-00229            
1 68578U 26072F   26109.32357770 -.00075041  00000+0 -20776-2 0  9995
2 68578  51.8701 101.6540 0005186 157.6014 202.5199 15.36585864  2325
KUIPER-00230            
1 68579U 26072G   26110.54229180  .00014593  00000+0  38787-3 0  9990
2 68579  51.8768  95.5695 0001597 105.6608 254.4556 15.38480228  2519
KUIPER-00231            
1 68580U 26072H   26110.54734291  .00017978  00000+0  48135-3 0  9994
2 68580  51.8750  95.6083 0002679 133.1844 226.9367 15.38084819  2514
KUIPER-00234            
1 68581U 26072J   26110.54348179  .00019742  00000+0  52012-3 0  9991
2 68581  51.8760  95.5825 0002279 119.1648 240.9568 15.38516443  2513
KUIPER-00236            
1 68582U 26072K   26110.54424757  .00002424  00000+0  73385-4 0  9995
2 68582  51.8764  95.5859 0002536 120.8679 239.2558 15.38357630  2515
KUIPER-00244            
1 68583U 26072L   26110.48352607  .00017671  00000+0  47422-3 0  9995
2 68583  51.8761  95.9288 0003870 146.5733 213.5499 15.38024626  2505
KUIPER-00253            
1 68584U 26072M   26108.53815128  .00021816  00000+0  59281-3 0  9993
2 68584  51.8706 105.3917 0005376 149.1443 210.9860 15.37485637  2202
KUIPER-00254            
1 68585U 26072N   26110.55917383  .00018437  00000+0  51061-3 0  9998
2 68585  51.8720  95.6850 0007613 162.4331 197.6920 15.36996721  2518
KUIPER-00263            
1 68586U 26072P   26110.54219653  .00022985  00000+0  60221-3 0  9994
2 68586  51.8768  95.5710 0002107  87.9693 272.1536 15.38589237  2514
